COSMOS 2251 DEB         
1 34726U 93036YU  17345.76187339  .00000246  00000-0  69437-4 0  9992
2 34726  74.0311  99.8797 0051763 256.6060 102.9327 14.50349724460627
